[{"OBJECT_NAME":"STARLINK-5288","OBJECT_ID":"2023-010AQ","EPOCH":"2026-03-09T22:12:42.597792","MEAN_MOTION":14.98341894,"ECCENTRICITY":0.00026057,"INCLINATION":70.0036,"RA_OF_ASC_NODE":4.0244,"ARG_OF_PERICENTER":234.2915,"MEAN_ANOMALY":125.8002,"EPHEMERIS_TYPE":0,"CLASSIFICATION_TYPE":"U","NORAD_CAT_ID":55307,"ELEMENT_SET_NO":999,"REV_AT_EPOCH":17380,"BSTAR":2.9119841e-5,"MEAN_MOTION_DOT":2.55e-6,"MEAN_MOTION_DDOT":0},{"OBJECT_NAME":"ICEYE-X43","OBJECT_ID":"2024-149BZ","EPOCH":"2026-03-09T22:37:06.906720","MEAN_MOTION":14.99337202,"ECCENTRICITY":0.00024583,"INCLINATION":97.6823,"RA_OF_ASC_NODE":147.2527,"ARG_OF_PERICENTER":59.9226,"MEAN_ANOMALY":300.2241,"EPHEMERIS_TYPE":0,"CLASSIFICATION_TYPE":"U","NORAD_CAT_ID":60539,"ELEMENT_SET_NO":999,"REV_AT_EPOCH":8524,"BSTAR":0.00036668005,"MEAN_MOTION_DOT":4.424e-5,"MEAN_MOTION_DDOT":0}]
